STARLINK AC             
1 53491U 22099AC  22231.58334491 -.01193806  00000+0 -91914-2 0  9996
2 53491  97.6556 349.4343 0001503  97.5091 261.3921 15.74731221  1303
STARLINK AD             
1 53492U 22099AD  22231.58334491 -.01193763  00000+0 -92186-2 0  9991
2 53492  97.6556 349.4335 0001502  96.4673 261.0637 15.74662444  1309
STARLINK AE             
1 53493U 22099AE  22231.58334491 -.01193230  00000+0 -91637-2 0  9991
2 53493  97.6556 349.4347 0001564 111.7194 248.0256 15.74787346  1301
STARLINK AF             
1 53494U 22099AF  22231.58334491 -.01193607  00000+0 -91985-2 0  9996
2 53494  97.6556 349.4339 0001512 100.8283 257.6114 15.74709098  1301
STARLINK AG             
1 53495U 22099AG  22231.58334491 -.01193526  00000+0 -91455-2 0  9999
2 53495  97.6556 349.4351 0001529 105.7763 254.8350 15.74839735  1315
STARLINK AH             
1 53496U 22099AH  22231.58334491 -.01193149  00000+0 -91727-2 0  9993
2 53496  97.6556 349.4343 0001574 113.0468 246.2527 15.74762959  1304
STARLINK AJ             
1 53497U 22099AJ  22231.58334491 -.01193816  00000+0 -91279-2 0  9997
2 53497  97.6556 349.4355 0001510 101.1409 260.3439 15.74890388  1319
STARLINK AK             
1 53498U 22099AK  22231.58334491 -.01194034  00000+0 -91605-2 0  9994
2 53498  97.6556 349.4347 0001498  95.1553 265.0262 15.74813480  1301
STARLINK AL             
1 53499U 22099AL  22231.58334491 -.01193739  00000+0 -91169-2 0  9991
2 53499  97.6556 349.4358 0001517 103.3091 258.6067 15.74916287  1305
STARLINK AM             
1 53500U 22099AM  22231.58334491 -.01193667  00000+0 -91372-2 0  9990
2 53500  97.6556 349.4352 0001518 103.4438 257.6130 15.74863742  1317
STARLINK AN             
1 53501U 22099AN  22231.58334491 -.01194160  00000+0 -90909-2 0  9995
2 53501  97.6556 349.4364 0001499  97.3777 265.8472 15.74990991  1302
STARLINK AP             
1 53502U 22099AP  22231.58334491 -.01193699  00000+0 -91064-2 0  9995
2 53502  97.6556 349.4358 0001523 104.8093 257.5394 15.74941756  1305
STARLINK AQ             
1 53503U 22099AQ  22231.58334491 -.01193411  00000+0 -90742-2 0  9990
2 53503  97.6556 349.4366 0001571 113.3107 250.3438 15.75016132  1301
STARLINK AR             
1 53504U 22099AR  22231.58334491 -.01193530  00000+0 -90960-2 0  9995
2 53504  97.6556 349.4360 0001544 109.0263 253.7742 15.74964064  1301
STARLINK AS             
1 53505U 22099AS  22231.58334491 -.01193594  00000+0 -90454-2 0  9994
2 53505  97.6556 349.4372 0001554 111.0617 253.8762 15.75093034  1306
STARLINK AT             
1 53506U 22099AT  22231.58334491 -.01193966  00000+0 -90685-2 0  9994
2 53506  97.6556 349.4366 0001511 102.1972 261.8788 15.75043164  1304
STARLINK AU             
1 53507U 22099AU  22231.58334491 -.01193618  00000+0 -90366-2 0  9995
2 53507  97.6556 349.4375 0001556 111.3052 254.0777 15.75115792  1304
STARLINK AV             
1 53508U 22099AV  22231.58334491 -.01194498  00000+0 -90637-2 0  9994
2 53508  97.6556 349.4368 0001493  93.4134 271.1044 15.75066957  1303
STARLINK AW             
1 53509U 22099AW  22231.58334491 -.01194536  00000+0 -90248-2 0  9996
2 53509  97.6556 349.4379 0001493  95.0928 271.1490 15.75166148  1303
STARLINK AX             
1 53510U 22099AX  22231.58334491 -.01194141  00000+0 -90304-2 0  9993
2 53510  97.6556 349.4374 0001507 101.3171 264.4803 15.75143304  1309
FALCON 9 DEB            
1 53511U 22099AY  22231.63104005  .00151983  00000+0  57809-3 0  9994
2 53511  97.6778 349.5522 0009639 249.9822 110.0411 15.87116876  1070
FALCON 9 DEB            
1 53512U 22099AZ  22231.62951225  .00162466  00000+0  60559-3 0  9992
2 53512  97.6758 349.5525 0007415 238.5592 121.4954 15.87535790  1078
FALCON 9 DEB            
1 53513U 22099BA  22231.62506342  .00170169  12592-4  61034-3 0  9991
2 53513  97.6718 349.5544 0012039 228.2644 131.7599 15.88668531  1078
FALCON 9 DEB            
1 53514U 22099BB  22231.68677613  .00168854  12469-4  59698-3 0  9992
2 53514  97.6704 349.6253 0010971 213.2050 146.8534 15.88979303  1089
NOAA 1 [-]              
1 04793U 70106A   22231.41703412 -.00000058  00000+0 -86777-4 0  9992
2 04793 101.5523 293.6298 0031611 198.9803 172.1328 12.54006881365486
NOAA 2 (ITOS-D) [-]     
1 06235U 72082A   22231.46300051 -.00000022  00000+0  15094-3 0  9990
2 06235 101.9576 214.0988 0003896 320.7006 156.6468 12.53150503279866
NOAA 3 [-]              
1 06920U 73086A   22231.47136510 -.00000026  00000+0  14553-3 0  9997
2 06920 102.2114 213.2022 0006311 171.1638 307.4622 12.40347582208606
NOAA 4 [-]              
1 07529U 74089A   22231.44348701 -.00000018  00000+0  17509-3 0  9996
2 07529 101.9179 211.2751 0009054 346.6101 137.7857 12.53159347184439
NOAA 5 [-]              
1 09057U 76077A   22231.45169231 -.00000001  00000+0  33499-3 0  9991
2 09057 102.1027 198.7800 0010281  24.7497  91.1490 12.37773187 81531
TIROS N [-]             
1 11060U 78096A   22231.41133330  .00000075  00000+0  57046-4 0  9993
2 11060  98.6308 283.4714 0009870 327.5616  32.4953 14.18405911480537
NOAA 6 [-]              
1 11416U 79057A   22231.76834580  .00000160  00000+0  73490-4 0  9995
2 11416  98.6645 242.7222 0011497  73.9812 286.2637 14.33785923250596
NOAA 7 [-]              
1 12553U 81059A   22231.83594302 -.00000019  00000+0  13410-4 0  9996
2 12553  98.9946 277.0248 0010562 298.0863  61.9243 14.17340342126770
NOAA 8 [-]              
1 13923U 83022A   22231.45152211  .00000081  00000+0  49788-4 0  9992
2 13923  98.6905 221.7598 0015705  29.2509 330.9549 14.28824104 51403
NOAA 9 [-]              
1 15427U 84123A   22231.48065611  .00000082  00000+0  64455-4 0  9995
2 15427  99.0503 204.8698 0014721 351.2689 117.3030 14.16216261945534
NOAA 10 [-]             
1 16969U 86073A   22231.51397635  .00000062  00000+0  42313-4 0  9998
2 16969  98.5721 216.5192 0013151 124.4572 347.7705 14.28214202869830
NOAA 11 [-]             
1 19531U 88089A   22231.61511814  .00000016  00000+0  29280-4 0  9990
2 19531  98.4284 217.2388 0011201   3.0918 357.0324 14.15318350749750
NOAA 12 [-]             
1 21263U 91032A   22231.85241798  .00000059  00000+0  42465-4 0  9991
2 21263  98.5166 229.9034 0014217 149.5965 210.6043 14.26005278625761
NOAA 13 [-]             
1 22739U 93050A   22231.61682065  .00000060  00000+0  54239-4 0  9996
2 22739  98.5094 208.2823 0009867 155.9548 204.2088 14.12855685495975
NOAA 14 [-]             
1 23455U 94089A   22231.87718950  .00000015  00000+0  28936-4 0  9991
2 23455  98.4458 255.1445 0010288 137.0870 223.1108 14.14205391425671
NOAA 15 [B]             
1 25338U 98030A   22231.84330481  .00000112  00000+0  64993-4 0  9990
2 25338  98.6412 260.5400 0011515 111.1162 249.1250 14.26162627262309
NOAA 16 [-]             
1 26536U 00055A   22231.82899406  .00000014  00000+0  30210-4 0  9992
2 26536  98.6317 288.5299 0010210 351.2293   8.8700 14.13339007426309
NOAA 17 [-]             
1 27453U 02032A   22231.90157112  .00000075  00000+0  50552-4 0  9996
2 27453  98.6741 176.4315 0013022  87.3898 272.8772 14.25135031 47894
NOAA 18 [B]             
1 28654U 05018A   22231.87616646  .00000118  00000+0  87577-4 0  9990
2 28654  98.9455 302.2519 0014943 149.1463 211.0590 14.12766074888930
NOAA 19 [+]             
1 33591U 09005A   22231.88462498  .00000131  00000+0  95735-4 0  9991
2 33591  99.1442 267.3417 0014062  14.3947 345.7622 14.12600118697143
SUOMI NPP [+]           
1 37849U 11061A   22231.84844903  .00000039  00000+0  39206-4 0  9995
2 37849  98.7336 169.5270 0001258  85.5692 337.7191 14.19538812560194
NOAA 20 [+]             
1 43013U 17073A   22231.87056144  .00000037  00000+0  38237-4 0  9990
2 43013  98.7175 169.4392 0000708 103.8462 256.2793 14.19539123246221
CELESTIS-02             
1 25160U 98007D   22231.71892546 -.00000026  00000+0  45964-4 0  9990
2 25160 107.9901  34.1362 0062564   0.2228  15.6165 14.21640177271859
CELESTIS-03             
1 26034U 99070C   22231.84669952  .00015908  00000+0  72731-3 0  9994
2 26034  98.3126 244.1964 0007759 268.8433  91.1911 15.20629668230707
O3B FM5                 
1 39188U 13031A   22231.04292534 -.00000027  00000+0  00000+0 0  9994
2 39188   0.0565  21.5321 0002569 129.0654 209.4152  5.00115326167099
O3B FM4                 
1 39189U 13031B   22230.89909291 -.00000027  00000+0  00000+0 0  9992
2 39189   0.0557 352.4398 0002531 157.2247 210.3483  5.00115826167094
O3B FM2                 
1 39190U 13031C   22231.79012588 -.00000027  00000+0  00000+0 0  9998
2 39190   0.0579 347.8643 0002574 162.5878 209.5608  5.00116861167197
O3B PFM                 
1 39191U 13031D   22231.61646928 -.00000027  00000+0  00000+0 0  9991
2 39191   0.0533  12.5342 0002645 135.9571 211.5228  5.00115713166749
O3B FM3                 
1 40079U 14038A   22231.67122427 -.00000027  00000+0  00000+0 0  9995
2 40079   0.0551   0.4971 0005018 141.0422 218.4948  5.00115386148213
O3B FM7                 
1 40080U 14038B   22231.61729542 -.00000027  00000+0  00000+0 0  9992
2 40080   0.0587 357.9042 0001229 191.0635 171.0284  5.00115512147963
O3B FM6                 
1 40081U 14038C   22230.84410766 -.00000027  00000+0  00000+0 0  9992
2 40081   0.0544 359.7135 0002682 148.8305 211.4702  5.00115435147876
O3B FM8                 
1 40082U 14038D   22230.89805126 -.00000027  00000+0  00000+0 0  9996
2 40082   0.0537 356.3843 0002671 148.6573 214.9741  5.00115675147991
O3B FM10                
1 40348U 14083A   22231.72363979 -.00000027  00000+0  00000+0 0  9999
2 40348   0.0499   8.3498 0002620 140.0643 211.5999  5.00115188139988
O3B FM11                
1 40349U 14083B   22231.73710909 -.00000027  00000+0  00000+0 0  9990
2 40349   0.0544   9.2767 0002324 154.2347 196.4946  5.00115420140005
O3B FM12                
1 40350U 14083C   22230.96474710 -.00000027  00000+0  00000+0 0  9993
2 40350   0.0540   8.4576 0002710 143.5522 208.0030  5.00115281139970
